NORAD_CAT_ID,OBJECT_NAME,OBJECT_TYPE,EPOCH,MEAN_MOTION,ECCENTRICITY,INCLINATION,RA_OF_ASC_NODE,ARG_OF_PERICENTER,MEAN_ANOMALY,BSTAR,MEAN_MOTION_DOT,MEAN_MOTION_DDOT,TLE_LINE0,TLE_LINE1,TLE_LINE2,SEMIMAJOR_AXIS,PERIOD,APOGEE,PERIGEE,DECAYED
53277.0,STARLINK-4178,PAYLOAD,2024-03-08 11:03:19,15.08842846,0.000135,53.2152,226.7629,84.0754,276.0392,-8.9578e-05,-1.713e-05,0.0,0 STARLINK-4178,1 53277U 22086AM  24068.46064131 -.00001713  00000-0 -89578-4 0  9992,2 53277  53.2152 226.7629 0001350  84.0754 276.0392 15.08842846 90807,6917.872,95.437,540.671,538.803,0.0
53277.0,STARLINK-4178,PAYLOAD,2024-03-08 17:24:51,15.08849622,0.0001416,53.2168,225.5744,80.196,279.9192,1.1271e-05,-1.09e-06,0.0,0 STARLINK-4178,1 53277U 22086AM  24068.72559943 -.00000109  00000-0  11271-4 0  9993,2 53277  53.2168 225.5744 0001416  80.1960 279.9192 15.08849622 90672,6917.851,95.437,540.696,538.736,0.0
53277.0,STARLINK-4178,PAYLOAD,2024-03-09 02:57:10,15.08842332,0.0001308,53.2157,223.7896,83.9818,276.1324,2.3205e-05,8.1e-07,0.0,0 STARLINK-4178,1 53277U 22086AM  24069.12304186  .00000081  00000-0  23205-4 0  9993,2 53277  53.2157 223.7896 0001308  83.9818 276.1324 15.08842332 90735,6917.873,95.437,540.643,538.833,0.0
53277.0,STARLINK-4178,PAYLOAD,2024-03-09 10:54:06,15.08837985,0.0001369,53.2164,222.3039,89.7858,270.3291,4.6866e-05,4.58e-06,0.0,0 STARLINK-4178,1 53277U 22086AM  24069.45424444  .00000458  00000-0  46866-4 0  9995,2 53277  53.2164 222.3039 0001369  89.7858 270.3291 15.08837985 90953,6917.887,95.438,540.699,538.804,0.0
53277.0,STARLINK-4178,PAYLOAD,2024-03-10 02:47:57,15.08842143,0.0001322,53.215,219.331,87.4599,272.6545,6.7924e-05,7.93e-06,0.0,0 STARLINK-4178,1 53277U 22086AM  24070.11664080  .00000793  00000-0  67924-4 0  9992,2 53277  53.2150 219.3310 0001322  87.4599 272.6545 15.08842143 91053,6917.874,95.437,540.653,538.824,0.0
53277.0,STARLINK-4178,PAYLOAD,2024-03-10 18:41:49,15.08839449,0.0001409,53.2135,216.3572,92.4627,267.6527,5.2545e-05,5.48e-06,0.0,0 STARLINK-4178,1 53277U 22086AM  24070.77904339  .00000548  00000-0  52545-4 0  9999,2 53277  53.2135 216.3572 0001409  92.4627 267.6527 15.08839449 90987,6917.882,95.438,540.722,538.772,0.0
53277.0,STARLINK-4178,PAYLOAD,2024-03-11 02:38:45,15.08836672,0.0001531,53.2138,214.8691,90.414,269.7027,7.3668e-05,8.85e-06,0.0,0 STARLINK-4178,1 53277U 22086AM  24071.11024528  .00000885  00000-0  73668-4 0  9994,2 53277  53.2138 214.8691 0001531  90.4140 269.7027 15.08836672 91208,6917.891,95.438,540.815,538.696,0.0
53277.0,STARLINK-4178,PAYLOAD,2024-03-12 08:51:05,15.08841458,0.0003088,53.2084,209.2189,86.3529,273.7816,8.0477e-05,9.92e-06,0.0,0 STARLINK-4178,1 53277U 22086AM  24072.36880791  .00000992  00000-0  80477-4 0  9999,2 53277  53.2084 209.2189 0003088  86.3529 273.7816 15.08841458 91223,6917.876,95.437,541.877,537.605,0.0
53277.0,STARLINK-4178,PAYLOAD,2024-03-12 15:12:38,15.08826889,8.62e-05,53.2196,208.0295,88.9791,271.13,-2.636e-05,-7.07e-06,0.0,0 STARLINK-4178,1 53277U 22086AM  24072.63377676 -.00000707  00000-0 -26360-4 0  9999,2 53277  53.2196 208.0295 0000862  88.9791 271.1300 15.08826889 91263,6917.92,95.438,540.382,539.189,0.0
53277.0,STARLINK-4178,PAYLOAD,2024-03-12 18:23:24,15.08825784,0.0001546,53.2121,207.4314,91.8444,268.2725,-3.4052e-05,-8.3e-06,0.0,0 STARLINK-4178,1 53277U 22086AM  24072.76625957 -.00000830  00000-0 -34052-4 0  9995,2 53277  53.2121 207.4314 0001546  91.8444 268.2725 15.08825784 91456,6917.924,95.438,540.858,538.719,0.0
53277.0,STARLINK-4178,PAYLOAD,2024-03-13 02:20:19,15.08835671,0.0001473,53.217,205.9463,93.6748,266.4412,5.4395e-05,5.78e-06,0.0,0 STARLINK-4178,1 53277U 22086AM  24073.09745245  .00000578  00000-0  54395-4 0  9994,2 53277  53.2170 205.9463 0001473  93.6748 266.4412 15.08835671 91330,6917.894,95.438,540.778,538.74,0.0
53277.0,STARLINK-4178,PAYLOAD,2024-03-13 15:03:24,15.08845713,0.0001102,53.2101,203.568,86.1293,273.9825,0.00010367,1.363e-05,0.0,0 STARLINK-4178,1 53277U 22086AM  24073.62736288  .00001363  00000-0  10367-3 0  9993,2 53277  53.2101 203.5680 0001102  86.1293 273.9825 15.08845713 91586,6917.863,95.437,540.49,538.966,0.0
53277.0,STARLINK-4178,PAYLOAD,2024-03-14 11:43:25,15.08832546,0.0001477,53.2132,199.701,93.1667,266.9494,0.00015307,2.149e-05,0.0,0 STARLINK-4178,1 53277U 22086AM  24074.48849028  .00002149  00000-0  15307-3 0  9997,2 53277  53.2132 199.7010 0001477  93.1667 266.9494 15.08832546 91541,6917.903,95.438,540.79,538.746,0.0
53277.0,STARLINK-4178,PAYLOAD,2024-03-14 18:04:58,15.08835388,0.0001596,53.2147,198.5122,95.2495,264.8679,0.00015218,2.134e-05,0.0,0 STARLINK-4178,1 53277U 22086AM  24074.75344922  .00002134  00000-0  15218-3 0  9995,2 53277  53.2147 198.5122 0001596  95.2495 264.8679 15.08835388 91754,6917.894,95.438,540.864,538.655,0.0
53277.0,STARLINK-4178,PAYLOAD,2024-03-15 11:34:12,15.08846058,0.0001673,53.2155,195.2411,101.7504,258.3676,-4.9417e-06,-3.67e-06,0.0,0 STARLINK-4178,1 53277U 22086AM  24075.48208677 -.00000367  00000-0 -49417-5 0  9990,2 53277  53.2155 195.2411 0001673 101.7504 258.3676 15.08846058 91692,6917.862,95.437,540.884,538.57,0.0
53277.0,STARLINK-4178,PAYLOAD,2024-03-16 13:00:23,15.08821697,0.0001518,53.2163,190.4828,105.7663,254.3497,-0.00011606,-2.134e-05,0.0,0 STARLINK-4178,1 53277U 22086AM  24076.54193732 -.00002134  00000-0 -11606-3 0  9994,2 53277  53.2163 190.4828 0001518 105.7663 254.3497 15.08821697 91855,6917.936,95.439,540.851,538.751,0.0
53277.0,STARLINK-4178,PAYLOAD,2024-03-16 14:35:46,15.08824763,0.0001395,53.217,190.1851,104.9124,255.2023,-0.00011101,-2.053e-05,0.0,0 STARLINK-4178,1 53277U 22086AM  24076.60817566 -.00002053  00000-0 -11101-3 0  9999,2 53277  53.2170 190.1851 0001395 104.9124 255.2023 15.08824763 92035,6917.927,95.439,540.757,538.827,0.0
53277.0,STARLINK-4178,PAYLOAD,2024-03-16 17:46:32,15.08823763,0.0001499,53.2171,189.5905,105.5161,254.5997,-0.00010345,-1.933e-05,0.0,0 STARLINK-4178,1 53277U 22086AM  24076.74065732 -.00001933  00000-0 -10345-3 0  9999,2 53277  53.2171 189.5905 0001499 105.5161 254.5997 15.08823763 92054,6917.93,95.439,540.832,538.758,0.0
53277.0,STARLINK-4178,PAYLOAD,2024-03-17 12:51:09,15.08843328,0.0001663,53.218,186.0285,110.789,249.328,6.0191e-05,6.7e-06,0.0,0 STARLINK-4178,1 53277U 22086AM  24077.53552455  .00000670  00000-0  60191-4 0  9990,2 53277  53.2180 186.0285 0001663 110.7890 249.3280 15.08843328 92008,6917.87,95.437,540.886,538.585,0.0
53277.0,STARLINK-4178,PAYLOAD,2024-03-17 14:26:32,15.08845552,0.0001579,53.2185,185.7311,105.1675,254.9492,7.943e-05,9.77e-06,0.0,0 STARLINK-4178,1 53277U 22086AM  24077.60176293  .00000977  00000-0  79430-4 0  9996,2 53277  53.2185 185.7311 0001579 105.1675 254.9492 15.08845552 92181,6917.863,95.437,540.821,538.636,0.0
53277.0,STARLINK-4178,PAYLOAD,2024-03-18 11:06:33,15.08823744,0.0001611,53.2185,181.8643,104.2775,255.8396,0.00015257,2.14e-05,0.0,0 STARLINK-4178,1 53277U 22086AM  24078.46289222  .00002140  00000-0  15257-3 0  9998,2 53277  53.2185 181.8643 0001611 104.2775 255.8396 15.08823744 92142,6917.93,95.439,540.91,538.681,0.0
53277.0,STARLINK-4178,PAYLOAD,2024-03-19 10:57:20,15.08848172,0.0001635,53.2194,177.4031,101.5499,258.5676,2.5082e-05,1.11e-06,0.0,0 STARLINK-4178,1 53277U 22086AM  24079.45648478  .00000111  00000-0  25082-4 0  9994,2 53277  53.2194 177.4031 0001635 101.5499 258.5676 15.08848172 92461,6917.855,95.437,540.851,538.589,0.0
53277.0,STARLINK-4178,PAYLOAD,2024-03-19 12:32:43,15.08849382,0.0001592,53.2178,177.1054,83.5657,276.5517,5.0607e-05,5.18e-06,0.0,0 STARLINK-4178,1 53277U 22086AM  24079.52272426  .00000518  00000-0  50607-4 0  9990,2 53277  53.2178 177.1054 0001592  83.5657 276.5517 15.08849382 92303,6917.852,95.437,540.818,538.615,0.0
53277.0,STARLINK-4178,PAYLOAD,2024-03-20 10:48:08,15.08834483,0.000146,53.2175,172.942,92.1485,267.9674,2.2334e-05,6.7e-07,0.0,0 STARLINK-4178,1 53277U 22086AM  24080.45009597  .00000067  00000-0  22334-4 0  9996,2 53277  53.2175 172.9420 0001460  92.1485 267.9674 15.08834483 92448,6917.897,95.438,540.772,538.752,0.0
53277.0,STARLINK-4178,PAYLOAD,2024-03-20 12:23:31,15.08835743,0.0001567,53.2173,172.6446,90.893,269.2241,3.9193e-05,3.36e-06,0.0,0 STARLINK-4178,1 53277U 22086AM  24080.51633573  .00000336  00000-0  39193-4 0  9990,2 53277  53.2173 172.6446 0001567  90.8930 269.2241 15.08835743 92624,6917.893,95.438,540.842,538.674,0.0
53277.0,STARLINK-4178,PAYLOAD,2024-03-21 12:14:17,15.08849249,0.0001451,53.216,168.1834,92.0418,268.074,7.166e-05,8.53e-06,0.0,0 STARLINK-4178,1 53277U 22086AM  24081.50992924  .00000853  00000-0  71660-4 0  9997,2 53277  53.2160 168.1834 0001451  92.0418 268.0740 15.08849249 92603,6917.852,95.437,540.721,538.713,0.0
53277.0,STARLINK-4178,PAYLOAD,2024-03-22 12:05:04,15.08858525,0.0001484,53.216,163.7225,93.2205,266.8957,0.00039702,6.039e-05,0.0,0 STARLINK-4178,1 53277U 22086AM  24082.50352235  .00006039  00000-0  39702-3 0  9995,2 53277  53.2160 163.7225 0001484  93.2205 266.8957 15.08858525 92929,6917.824,95.436,540.715,538.662,0.0
53277.0,STARLINK-4178,PAYLOAD,2024-03-22 15:15:50,15.08865292,0.0001475,53.2159,163.1266,93.7938,266.3223,0.00049861,7.662e-05,0.0,0 STARLINK-4178,1 53277U 22086AM  24082.63599948  .00007662  00000-0  49861-3 0  9993,2 53277  53.2159 163.1266 0001475  93.7938 266.3223 15.08865292 92777,6917.803,95.436,540.688,538.648,0.0
53277.0,STARLINK-4178,PAYLOAD,2024-03-23 05:34:20,15.08824756,0.0001254,53.2176,160.4505,85.1247,274.9888,-0.00030489,-5.135e-05,0.0,0 STARLINK-4178,1 53277U 22086AM  24083.23217654 -.00005135  00000-0 -30489-3 0  9992,2 53277  53.2176 160.4505 0001254  85.1247 274.9888 15.08824756 92867,6917.927,95.439,540.659,538.924,0.0
53277.0,STARLINK-4178,PAYLOAD,2024-03-23 11:55:52,15.08825845,0.0001586,53.2176,159.2621,91.1605,268.9568,-0.00025114,-4.281e-05,0.0,0 STARLINK-4178,1 53277U 22086AM  24083.49713744 -.00004281  00000-0 -25114-3 0  9991,2 53277  53.2176 159.2621 0001586  91.1605 268.9568 15.08825845 93077,6917.924,95.438,540.886,538.691,0.0
